OBJECT_NAME,OBJECT_ID,EPOCH,MEAN_MOTION,ECCENTRICITY,INCLINATION,RA_OF_ASC_NODE,ARG_OF_PERICENTER,MEAN_ANOMALY,EPHEMERIS_TYPE,CLASSIFICATION_TYPE,NORAD_CAT_ID,ELEMENT_SET_NO,REV_AT_EPOCH,BSTAR,MEAN_MOTION_DOT,MEAN_MOTION_DDOT
CHUANGXIN 1-02 (CX-1-02),2008-056B,2026-06-10T07:13:49.223424,14.30151513,.00146288,98.6141,187.6369,155.9614,204.2254,0,U,33434,999,91763,.714566E-6,-.42E-6,0
STARS (KUKAI),2009-002G,2026-06-10T03:04:02.201664,14.95700117,.00083102,98.1539,108.1482,181.5219,178.5977,0,U,33498,999,93742,.34534556E-3,.3784E-4,0
KKS-1 (KISEKI),2009-002H,2026-06-10T04:08:33.656064,14.83105969,.00069405,98.1193,83.5038,322.3486,37.7241,0,U,33499,999,93515,.1534346E-3,.1194E-4,0
UK-DMC 2,2009-041C,2026-06-08T21:18:06.143904,14.76019080,.00012963,97.8828,295.0575,72.8745,287.2607,0,U,35683,999,90534,.16742289E-3,.1104E-4,0
OCEANSAT-2,2009-051A,2026-06-10T06:22:12.897984,13.99664499,.00147315,98.2324,148.8073,257.1893,102.7628,0,U,35931,999,87836,.61037236E-4,.52E-6,0
SWISSCUBE,2009-051B,2026-06-09T17:04:01.608672,14.62467613,.00055621,98.4042,68.4691,230.1201,129.9511,0,U,35932,999,88806,.19187016E-3,.922E-5,0
BEESAT-1,2009-051C,2026-06-09T23:46:18.750720,14.61708937,.00039263,98.3972,68.4038,245.5037,114.5754,0,U,35933,999,88813,.1560043E-3,.728E-5,0
ITUPSAT1,2009-051E,2026-06-09T23:24:07.439040,14.60430038,.00061248,98.4056,67.5878,261.1078,98.9428,0,U,35935,999,88768,.14898186E-3,.673E-5,0
DMSP 5D-3 F18 (USA 210),2009-057A,2026-06-10T06:45:31.675104,14.14892864,.00098503,98.9035,142.0658,271.5337,88.4708,0,U,35951,999,85861,.14380492E-3,.233E-5,0
PROBA-2,2009-059B,2026-06-10T05:24:31.248288,14.54859402,.00121716,98.2450,344.6748,305.8171,54.1895,0,U,36037,999,88051,.49288075E-4,.166E-5,0
YAOGAN-7,2009-069A,2026-06-09T21:54:11.132640,14.78002486,.00259108,98.0082,46.8244,64.1879,296.2000,0,U,36110,999,88855,.67592338E-4,.437E-5,0
XIWANG-1 (HOPE-1),2009-072B,2026-06-10T06:02:49.662816,13.16437827,.00068036,100.4021,115.1947,249.1811,110.8574,0,U,36122,999,79209,-.49508422E-3,-.233E-5,0
COSMOS 2463,2010-017A,2026-06-10T04:30:16.612128,13.71665276,.00370047,82.9607,254.8480,147.7454,274.9576,0,U,36519,999,80697,.24080891E-4,.37E-6,0
CARTOSAT-2B,2010-035A,2026-06-10T07:14:52.950336,14.78652808,.00106493,97.9955,211.8955,207.0849,152.9808,0,U,36795,999,85883,.95911342E-4,.651E-5,0
TISAT 1,2010-035E,2026-06-10T03:02:02.135904,15.31440689,.00003997,98.0700,107.0500,178.3205,181.8036,0,U,36799,999,86662,.66907344E-3,.20261E-3,0
YAOGAN-10,2010-038A,2026-06-10T08:15:37.081152,14.85326717,.00016337,97.8983,184.8032,89.4904,326.6440,0,U,36834,999,85619,.1396156E-3,.1146E-4,0
SHIJIAN-6 04B (SJ-6 04B),2010-051B,2026-06-10T06:46:34.208832,14.99298063,.00089474,97.8686,166.6222,336.2069,23.8739,0,U,37180,999,85464,.72746381E-4,.827E-5,0
FENGYUN 3B,2010-059A,2026-06-10T07:24:30.070368,14.14838721,.00215103,98.9625,207.2940,203.7829,248.1572,0,U,37214,999,80645,-.15731111E-3,-.349E-5,0
O/OREOS (USA 219),2010-062C,2026-06-10T03:56:33.382464,14.93714320,.00124009,71.9705,96.2464,78.4284,281.8278,0,U,37224,999,11559,.20539697E-3,.2115E-4,0
RESOURCESAT-2,2011-015A,2026-06-10T06:17:07.429056,14.21604904,.00101225,98.7644,228.7513,277.8570,82.1458,0,U,37387,999,78519,.38418979E-4,.4E-6,0
YOUTHSAT,2011-015B,2026-06-10T04:46:48.758016,14.25627452,.00146605,98.3678,135.5685,7.7100,7.7512,0,U,37388,999,78664,.86516996E-4,.164E-5,0
APRIZESAT 6,2011-044F,2026-06-10T00:35:05.315712,14.76905237,.00443961,98.2371,71.3776,108.2546,266.6397,0,U,37793,999,79609,.97847595E-4,.643E-5,0
JUGNU,2011-058B,2026-06-10T06:10:14.789568,14.13774890,.00185618,19.9621,350.5295,359.9630,156.5973,0,U,37839,999,75804,.69140643E-4,.399E-5,0
SRMSAT,2011-058D,2026-06-10T03:29:26.928384,14.11574082,.00119314,19.9712,102.0891,126.5108,263.2638,0,U,37841,999,75682,.51118913E-4,.359E-5,0
